[{"OBJECT_NAME":"STARLINK-6287","OBJECT_ID":"2023-061AG","EPOCH":"2026-03-09T08:35:57.849216","MEAN_MOTION":15.02534595,"ECCENTRICITY":0.00014249,"INCLINATION":43.0036,"RA_OF_ASC_NODE":186.3692,"ARG_OF_PERICENTER":267.5844,"MEAN_ANOMALY":92.4835,"EPHEMERIS_TYPE":0,"CLASSIFICATION_TYPE":"U","NORAD_CAT_ID":56404,"ELEMENT_SET_NO":999,"REV_AT_EPOCH":15685,"BSTAR":3.8842138e-5,"MEAN_MOTION_DOT":3.21e-6,"MEAN_MOTION_DDOT":0},{"OBJECT_NAME":"CZ-6A DEB","OBJECT_ID":"2022-151YG","EPOCH":"2026-03-09T16:37:27.747264","MEAN_MOTION":14.90305171,"ECCENTRICITY":0.005448,"INCLINATION":98.6541,"RA_OF_ASC_NODE":144.0499,"ARG_OF_PERICENTER":194.4626,"MEAN_ANOMALY":165.5033,"EPHEMERIS_TYPE":0,"CLASSIFICATION_TYPE":"U","NORAD_CAT_ID":55534,"ELEMENT_SET_NO":999,"REV_AT_EPOCH":17121,"BSTAR":0.0042122496,"MEAN_MOTION_DOT":0.00042257,"MEAN_MOTION_DDOT":0}]
